<?xml version="1.0" encoding="UTF-8"?>
<ndm xmlns:xsi="http://www.w3.org/2001/XMLSchema-instance" xsi:noNamespaceSchemaLocation="https://sanaregistry.org/r/ndmxml_unqualified/ndmxml-2.0.0-master-2.0.xsd">
<omm id="CCSDS_OMM_VERS" version="2.0">
<header><CREATION_DATE/><ORIGINATOR/></header><body><segment><metadata><OBJECT_NAME>IRIDIUM 39</OBJECT_NAME><OBJECT_ID>1997-069D</OBJECT_ID><CENTER_NAME>EARTH</CENTER_NAME><REF_FRAME>TEME</REF_FRAME><TIME_SYSTEM>UTC</TIME_SYSTEM><MEAN_ELEMENT_THEORY>SGP4</MEAN_ELEMENT_THEORY></metadata><data><meanElements><EPOCH>2025-08-27T05:53:40.209792</EPOCH><MEAN_MOTION>14.49292296</MEAN_MOTION><ECCENTRICITY>.00200909</ECCENTRICITY><INCLINATION>86.3975</INCLINATION><RA_OF_ASC_NODE>180.6883</RA_OF_ASC_NODE><ARG_OF_PERICENTER>71.5518</ARG_OF_PERICENTER><MEAN_ANOMALY>288.7868</MEAN_ANOMALY></meanElements><tleParameters><EPHEMERIS_TYPE>0</EPHEMERIS_TYPE><CLASSIFICATION_TYPE>U</CLASSIFICATION_TYPE><NORAD_CAT_ID>25042</NORAD_CAT_ID><ELEMENT_SET_NO>999</ELEMENT_SET_NO><REV_AT_EPOCH>45925</REV_AT_EPOCH><BSTAR>.18513631E-3</BSTAR><MEAN_MOTION_DOT>.729E-5</MEAN_MOTION_DOT><MEAN_MOTION_DDOT>0</MEAN_MOTION_DDOT></tleParameters></data></segment></body></omm>
<omm id="CCSDS_OMM_VERS" version="2.0">
<header><CREATION_DATE/><ORIGINATOR/></header><body><segment><metadata><OBJECT_NAME>IRIDIUM 38</OBJECT_NAME><OBJECT_ID>1997-069E</OBJECT_ID><CENTER_NAME>EARTH</CENTER_NAME><REF_FRAME>TEME</REF_FRAME><TIME_SYSTEM>UTC</TIME_SYSTEM><MEAN_ELEMENT_THEORY>SGP4</MEAN_ELEMENT_THEORY></metadata><data><meanElements><EPOCH>2025-08-26T22:19:20.956224</EPOCH><MEAN_MOTION>14.38166273</MEAN_MOTION><ECCENTRICITY>.00015318</ECCENTRICITY><INCLINATION>86.3987</INCLINATION><RA_OF_ASC_NODE>203.4011</RA_OF_ASC_NODE><ARG_OF_PERICENTER>144.1001</ARG_OF_PERICENTER><MEAN_ANOMALY>216.0300</MEAN_ANOMALY></meanElements><tleParameters><EPHEMERIS_TYPE>0</EPHEMERIS_TYPE><CLASSIFICATION_TYPE>U</CLASSIFICATION_TYPE><NORAD_CAT_ID>25043</NORAD_CAT_ID><ELEMENT_SET_NO>999</ELEMENT_SET_NO><REV_AT_EPOCH>45612</REV_AT_EPOCH><BSTAR>.14499306E-3</BSTAR><MEAN_MOTION_DOT>.459E-5</MEAN_MOTION_DOT><MEAN_MOTION_DDOT>0</MEAN_MOTION_DDOT></tleParameters></data></segment></body></omm>
<omm id="CCSDS_OMM_VERS" version="2.0">
<header><CREATION_DATE/><ORIGINATOR/></header><body><segment><metadata><OBJECT_NAME>IRIDIUM 42</OBJECT_NAME><OBJECT_ID>1997-077A</OBJECT_ID><CENTER_NAME>EARTH</CENTER_NAME><REF_FRAME>TEME</REF_FRAME><TIME_SYSTEM>UTC</TIME_SYSTEM><MEAN_ELEMENT_THEORY>SGP4</MEAN_ELEMENT_THEORY></metadata><data><meanElements><EPOCH>2025-08-27T03:54:05.950368</EPOCH><MEAN_MOTION>14.36397916</MEAN_MOTION><ECCENTRICITY>.00015822</ECCENTRICITY><INCLINATION>86.3979</INCLINATION><RA_OF_ASC_NODE>209.5556</RA_OF_ASC_NODE><ARG_OF_PERICENTER>98.8879</ARG_OF_PERICENTER><MEAN_ANOMALY>261.2497</MEAN_ANOMALY></meanElements><tleParameters><EPHEMERIS_TYPE>0</EPHEMERIS_TYPE><CLASSIFICATION_TYPE>U</CLASSIFICATION_TYPE><NORAD_CAT_ID>25077</NORAD_CAT_ID><ELEMENT_SET_NO>999</ELEMENT_SET_NO><REV_AT_EPOCH>45138</REV_AT_EPOCH><BSTAR>.13665017E-3</BSTAR><MEAN_MOTION_DOT>.42E-5</MEAN_MOTION_DOT><MEAN_MOTION_DDOT>0</MEAN_MOTION_DDOT></tleParameters></data></segment></body></omm>
<omm id="CCSDS_OMM_VERS" version="2.0">
<header><CREATION_DATE/><ORIGINATOR/></header><body><segment><metadata><OBJECT_NAME>IRIDIUM 44</OBJECT_NAME><OBJECT_ID>1997-077B</OBJECT_ID><CENTER_NAME>EARTH</CENTER_NAME><REF_FRAME>TEME</REF_FRAME><TIME_SYSTEM>UTC</TIME_SYSTEM><MEAN_ELEMENT_THEORY>SGP4</MEAN_ELEMENT_THEORY></metadata><data><meanElements><EPOCH>2025-08-27T03:12:48.473568</EPOCH><MEAN_MOTION>14.40290802</MEAN_MOTION><ECCENTRICITY>.00034527</ECCENTRICITY><INCLINATION>86.4010</INCLINATION><RA_OF_ASC_NODE>191.3225</RA_OF_ASC_NODE><ARG_OF_PERICENTER>117.1695</ARG_OF_PERICENTER><MEAN_ANOMALY>242.9856</MEAN_ANOMALY></meanElements><tleParameters><EPHEMERIS_TYPE>0</EPHEMERIS_TYPE><CLASSIFICATION_TYPE>U</CLASSIFICATION_TYPE><NORAD_CAT_ID>25078</NORAD_CAT_ID><ELEMENT_SET_NO>999</ELEMENT_SET_NO><REV_AT_EPOCH>45391</REV_AT_EPOCH><BSTAR>.15098782E-3</BSTAR><MEAN_MOTION_DOT>.498E-5</MEAN_MOTION_DOT><MEAN_MOTION_DDOT>0</MEAN_MOTION_DDOT></tleParameters></data></segment></body></omm>
<omm id="CCSDS_OMM_VERS" version="2.0">
<header><CREATION_DATE/><ORIGINATOR/></header><body><segment><metadata><OBJECT_NAME>IRIDIUM 45</OBJECT_NAME><OBJECT_ID>1997-082A</OBJECT_ID><CENTER_NAME>EARTH</CENTER_NAME><REF_FRAME>TEME</REF_FRAME><TIME_SYSTEM>UTC</TIME_SYSTEM><MEAN_ELEMENT_THEORY>SGP4</MEAN_ELEMENT_THEORY></metadata><data><meanElements><EPOCH>2025-08-26T20:47:45.291552</EPOCH><MEAN_MOTION>15.24826173</MEAN_MOTION><ECCENTRICITY>.01130223</ECCENTRICITY><INCLINATION>86.3609</INCLINATION><RA_OF_ASC_NODE>13.5044</RA_OF_ASC_NODE><ARG_OF_PERICENTER>66.9485</ARG_OF_PERICENTER><MEAN_ANOMALY>294.3630</MEAN_ANOMALY></meanElements><tleParameters><EPHEMERIS_TYPE>0</EPHEMERIS_TYPE><CLASSIFICATION_TYPE>U</CLASSIFICATION_TYPE><NORAD_CAT_ID>25104</NORAD_CAT_ID><ELEMENT_SET_NO>999</ELEMENT_SET_NO><REV_AT_EPOCH>46280</REV_AT_EPOCH><BSTAR>.76898199E-3</BSTAR><MEAN_MOTION_DOT>.23007E-3</MEAN_MOTION_DOT><MEAN_MOTION_DDOT>0</MEAN_MOTION_DDOT></tleParameters></data></segment></body></omm>
<omm id="CCSDS_OMM_VERS" version="2.0">
<header><CREATION_DATE/><ORIGINATOR/></header><body><segment><metadata><OBJECT_NAME>IRIDIUM 24</OBJECT_NAME><OBJECT_ID>1997-082B</OBJECT_ID><CENTER_NAME>EARTH</CENTER_NAME><REF_FRAME>TEME</REF_FRAME><TIME_SYSTEM>UTC</TIME_SYSTEM><MEAN_ELEMENT_THEORY>SGP4</MEAN_ELEMENT_THEORY></metadata><data><meanElements><EPOCH>2025-08-27T05:22:04.392480</EPOCH><MEAN_MOTION>14.42154356</MEAN_MOTION><ECCENTRICITY>.00107283</ECCENTRICITY><INCLINATION>86.3874</INCLINATION><RA_OF_ASC_NODE>50.1453</RA_OF_ASC_NODE><ARG_OF_PERICENTER>192.9120</ARG_OF_PERICENTER><MEAN_ANOMALY>167.1808</MEAN_ANOMALY></meanElements><tleParameters><EPHEMERIS_TYPE>0</EPHEMERIS_TYPE><CLASSIFICATION_TYPE>U</CLASSIFICATION_TYPE><NORAD_CAT_ID>25105</NORAD_CAT_ID><ELEMENT_SET_NO>999</ELEMENT_SET_NO><REV_AT_EPOCH>45345</REV_AT_EPOCH><BSTAR>.15901608E-3</BSTAR><MEAN_MOTION_DOT>.543E-5</MEAN_MOTION_DOT><MEAN_MOTION_DDOT>0</MEAN_MOTION_DDOT></tleParameters></data></segment></body></omm>
<omm id="CCSDS_OMM_VERS" version="2.0">
<header><CREATION_DATE/><ORIGINATOR/></header><body><segment><metadata><OBJECT_NAME>IRIDIUM 51</OBJECT_NAME><OBJECT_ID>1998-018A</OBJECT_ID><CENTER_NAME>EARTH</CENTER_NAME><REF_FRAME>TEME</REF_FRAME><TIME_SYSTEM>UTC</TIME_SYSTEM><MEAN_ELEMENT_THEORY>SGP4</MEAN_ELEMENT_THEORY></metadata><data><meanElements><EPOCH>2025-08-26T23:15:13.271040</EPOCH><MEAN_MOTION>15.44285568</MEAN_MOTION><ECCENTRICITY>.00773713</ECCENTRICITY><INCLINATION>86.3837</INCLINATION><RA_OF_ASC_NODE>20.6540</RA_OF_ASC_NODE><ARG_OF_PERICENTER>337.8447</ARG_OF_PERICENTER><MEAN_ANOMALY>21.9469</MEAN_ANOMALY></meanElements><tleParameters><EPHEMERIS_TYPE>0</EPHEMERIS_TYPE><CLASSIFICATION_TYPE>U</CLASSIFICATION_TYPE><NORAD_CAT_ID>25262</NORAD_CAT_ID><ELEMENT_SET_NO>999</ELEMENT_SET_NO><REV_AT_EPOCH>45793</REV_AT_EPOCH><BSTAR>.76597264E-3</BSTAR><MEAN_MOTION_DOT>.39607E-3</MEAN_MOTION_DOT><MEAN_MOTION_DDOT>0</MEAN_MOTION_DDOT></tleParameters></data></segment></body></omm>
<omm id="CCSDS_OMM_VERS" version="2.0">
<header><CREATION_DATE/><ORIGINATOR/></header><body><segment><metadata><OBJECT_NAME>IRIDIUM 57</OBJECT_NAME><OBJECT_ID>1998-019B</OBJECT_ID><CENTER_NAME>EARTH</CENTER_NAME><REF_FRAME>TEME</REF_FRAME><TIME_SYSTEM>UTC</TIME_SYSTEM><MEAN_ELEMENT_THEORY>SGP4</MEAN_ELEMENT_THEORY></metadata><data><meanElements><EPOCH>2025-08-26T21:41:02.569344</EPOCH><MEAN_MOTION>14.35932490</MEAN_MOTION><ECCENTRICITY>.00020743</ECCENTRICITY><INCLINATION>86.3950</INCLINATION><RA_OF_ASC_NODE>115.6400</RA_OF_ASC_NODE><ARG_OF_PERICENTER>88.7631</ARG_OF_PERICENTER><MEAN_ANOMALY>271.3803</MEAN_ANOMALY></meanElements><tleParameters><EPHEMERIS_TYPE>0</EPHEMERIS_TYPE><CLASSIFICATION_TYPE>U</CLASSIFICATION_TYPE><NORAD_CAT_ID>25273</NORAD_CAT_ID><ELEMENT_SET_NO>999</ELEMENT_SET_NO><REV_AT_EPOCH>43493</REV_AT_EPOCH><BSTAR>.10103113E-3</BSTAR><MEAN_MOTION_DOT>.313E-5</MEAN_MOTION_DOT><MEAN_MOTION_DDOT>0</MEAN_MOTION_DDOT></tleParameters></data></segment></body></omm>

</ndm>
