IRIDIUM 39              
1 25042U 97069D   25239.24560428  .00000729  00000+0  18514-3 0  9995
2 25042  86.3975 180.6883 0020090  71.5518 288.7868 14.49292296459255
IRIDIUM 38              
1 25043U 97069E   25238.93010366  .00000459  00000+0  14499-3 0  9990
2 25043  86.3987 203.4011 0001531 144.1001 216.0300 14.38166273456120
IRIDIUM 42              
1 25077U 97077A   25239.16256887  .00000420  00000+0  13665-3 0  9994
2 25077  86.3979 209.5556 0001582  98.8879 261.2497 14.36397916451383
IRIDIUM 44              
1 25078U 97077B   25239.13389437  .00000498  00000+0  15099-3 0  9998
2 25078  86.4010 191.3225 0003452 117.1695 242.9856 14.40290802453918
IRIDIUM 45              
1 25104U 97082A   25238.86649643  .00023007  00000+0  76898-3 0  9996
2 25104  86.3609  13.5044 0113022  66.9485 294.3630 15.24826173462806
IRIDIUM 24              
1 25105U 97082B   25239.22366195  .00000543  00000+0  15902-3 0  9995
2 25105  86.3874  50.1453 0010728 192.9120 167.1808 14.42154356453458
IRIDIUM 51              
1 25262U 98018A   25238.96890360  .00039607  00000+0  76597-3 0  9995
2 25262  86.3837  20.6540 0077371 337.8447  21.9469 15.44285568457939
IRIDIUM 57              
1 25273U 98019B   25238.90350196  .00000313  00000+0  10103-3 0  9993
2 25273  86.3950 115.6400 0002074  88.7631 271.3803 14.35932490434932
